CTC2_L_00176016-03
1 10062U 22043JB  26075.70042824  .00000000  00000+0  00000-0 0  9996
2 10062 100.0000 180.0000 0000000   0.0000   0.0000 14.89338871    14
CTC2_L_00176016-04
1 10063U 22865RF  26075.70042824  .00000000  00000+0  00000-0 0  9999
2 10063 100.0000 180.0000 0000000   0.0000  90.0000 14.89338871    14
CTC2_L_00176017-01
1 10064U 25064VI  26075.70042824  .00000000  00000+0  00000-0 0  9994
2 10064 100.0000 192.0000 0000000   0.0000 192.0000 14.89338871    11
CTC2_L_00176017-02
1 10065U 26783FX  26075.70042824  .00000000  00000+0  00000-0 0  9994
2 10065 100.0000 192.0000 0000000   0.0000 282.0000 14.89338871    12
CTC2_L_00176017-03
1 10066U 24743VY  26075.70042824  .00000000  00000+0  00000-0 0  9999
2 10066 100.0000 192.0000 0000000   0.0000  12.0000 14.89338871    14
CTC2_L_00176017-04
1 10067U 23618JC  26075.70042824  .00000000  00000+0  00000-0 0  9990
2 10067 100.0000 192.0000 0000000   0.0000 102.0000 14.89338871    15
CTC2_L_00176018-01
1 10068U 24391SP  26075.70042824  .00000000  00000+0  00000-0 0  9990
2 10068 100.0000 204.0000 0000000   0.0000 204.0000 14.89338871    13
CTC2_L_00176018-02
1 10069U 24520E   26075.70042824  .00000000  00000+0  00000-0 0  9995
2 10069 100.0000 204.0000 0000000   0.0000 294.0000 14.89338871    13
CTC2_L_00176018-03
1 10070U 23443KE  26075.70042824  .00000000  00000+0  00000-0 0  9990
2 10070 100.0000 204.0000 0000000   0.0000  24.0000 14.89338871    16
CTC2_L_00176018-04
1 10071U 23353TD  26075.70042824  .00000000  00000+0  00000-0 0  9991
2 10071 100.0000 204.0000 0000000   0.0000 114.0000 14.89338871    17
CTC2_L_00176019-01
1 10072U 24289HM  26075.70042824  .00000000  00000+0  00000-0 0  9991
2 10072 100.0000 216.0000 0000000   0.0000 216.0000 14.89338871    14
CTC2_L_00176019-02
1 10073U 22800GI  26075.70042824  .00000000  00000+0  00000-0 0  9999
2 10073 100.0000 216.0000 0000000   0.0000 306.0000 14.89338871    15
CTC2_L_00176019-03
1 10074U 23261UX  26075.70042824  .00000000  00000+0  00000-0 0  9992
2 10074 100.0000 216.0000 0000000   0.0000  36.0000 14.89338871    16
CTC2_L_00176019-04
1 10075U 22540KD  26075.70042824  .00000000  00000+0  00000-0 0  9992
2 10075 100.0000 216.0000 0000000   0.0000 126.0000 14.89338871    17
CTC2_L_00176020-01
1 10076U 23730SA  26075.70042824  .00000000  00000+0  00000-0 0  9995
2 10076 100.0000 228.0000 0000000   0.0000 228.0000 14.89338871    14
CTC2_L_00176020-02
1 10077U 22740M   26075.70042824  .00000000  00000+0  00000-0 0  9996
2 10077 100.0000 228.0000 0000000   0.0000 318.0000 14.89338871    15
CTC2_L_00176020-03
1 10078U 23986TX  26075.70042824  .00000000  00000+0  00000-0 0  9990
2 10078 100.0000 228.0000 0000000   0.0000  48.0000 14.89338871    16
CTC2_L_00176020-04
1 10079U 23859FM  26075.70042824  .00000000  00000+0  00000-0 0  9990
2 10079 100.0000 228.0000 0000000   0.0000 138.0000 14.89338871    17
CTC2_L_00176021-01
1 10080U 26670WM  26075.70042824  .00000000  00000+0  00000-0 0  9996
2 10080 100.0000 240.0000 0000000   0.0000 240.0000 14.89338871    17
CTC2_L_00176021-02
1 10081U 22171NF  26075.70042824  .00000000  00000+0  00000-0 0  9999
2 10081 100.0000 240.0000 0000000   0.0000 330.0000 14.89338871    18
CTC2_L_00176021-03
1 10082U 25514MM  26075.70042824  .00000000  00000+0  00000-0 0  9994
2 10082 100.0000 240.0000 0000000   0.0000  60.0000 14.89338871    19
CTC2_L_00176021-04
1 10083U 26203PE  26075.70042824  .00000000  00000+0  00000-0 0  9991
2 10083 100.0000 240.0000 0000000   0.0000 150.0000 14.89338871    10
CTC2_L_00176022-01
1 10084U 26548FN  26075.70042824  .00000000  00000+0  00000-0 0  9994
2 10084 100.0000 252.0000 0000000   0.0000 252.0000 14.89338871    17
CTC2_L_00176022-02
1 10085U 24391EN  26075.70042824  .00000000  00000+0  00000-0 0  9999
2 10085 100.0000 252.0000 0000000   0.0000 342.0000 14.89338871    18
CTC2_L_00176022-03
1 10086U 22628R   26075.70042824  .00000000  00000+0  00000-0 0  9991
2 10086 100.0000 252.0000 0000000   0.0000  72.0000 14.89338871    19
CTC2_L_00176022-04
1 10087U 24810DN  26075.70042824  .00000000  00000+0  00000-0 0  9997
2 10087 100.0000 252.0000 0000000   0.0000 162.0000 14.89338871    10
CTC2_L_00176023-01
1 10088U 26986QK  26075.70042824  .00000000  00000+0  00000-0 0  9994
2 10088 100.0000 264.0000 0000000   0.0000 264.0000 14.89338871    17
CTC2_L_00176023-02
1 10089U 23509NH  26075.70042824  .00000000  00000+0  00000-0 0  9993
2 10089 100.0000 264.0000 0000000   0.0000 354.0000 14.89338871    18
CTC2_L_00176023-03
1 10090U 23116VR  26075.70042824  .00000000  00000+0  00000-0 0  9999
2 10090 100.0000 264.0000 0000000   0.0000  84.0000 14.89338871    10
CTC2_L_00176023-04
1 10091U 23737UT  26075.70042824  .00000000  00000+0  00000-0 0  9999
2 10091 100.0000 264.0000 0000000   0.0000 174.0000 14.89338871    11
CTC2_L_00176024-01
1 10092U 26660UD  26075.70042824  .00000000  00000+0  00000-0 0  9998
2 10092 100.0000 276.0000 0000000   0.0000 276.0000 14.89338871    18
CTC2_L_00176024-02
1 10093U 23837UC  26075.70042824  .00000000  00000+0  00000-0 0  9992
2 10093 100.0000 276.0000 0000000   0.0000   6.0000 14.89338871    10
CTC2_L_00176024-03
1 10094U 23589TA  26075.70042824  .00000000  00000+0  00000-0 0  9997
2 10094 100.0000 276.0000 0000000   0.0000  96.0000 14.89338871    10
CTC2_L_00176024-04
1 10095U 22415KP  26075.70042824  .00000000  00000+0  00000-0 0  9995
2 10095 100.0000 276.0000 0000000   0.0000 186.0000 14.89338871    11
CTC2_L_00176025-01
1 10096U 23490YZ  26075.70042824  .00000000  00000+0  00000-0 0  9990
2 10096 100.0000 288.0000 0000000   0.0000 288.0000 14.89338871    18
CTC2_L_00176025-02
1 10097U 23423XB  26075.70042824  .00000000  00000+0  00000-0 0  9997
2 10097 100.0000 288.0000 0000000   0.0000  18.0000 14.89338871    10
CTC2_L_00176025-03
1 10098U 26774GS  26075.70042824  .00000000  00000+0  00000-0 0  9990
2 10098 100.0000 288.0000 0000000   0.0000 108.0000 14.89338871    11
CTC2_L_00176025-04
1 10099U 23289XY  26075.70042824  .00000000  00000+0  00000-0 0  9999
2 10099 100.0000 288.0000 0000000   0.0000 198.0000 14.89338871    11
CTC2_L_00176026-01
1 10100U 22938ZD  26075.70042824  .00000000  00000+0  00000-0 0  9992
2 10100 100.0000 300.0000 0000000   0.0000 300.0000 14.89338871    14
CTC2_L_00176026-02
1 10101U 23895N   26075.70042824  .00000000  00000+0  00000-0 0  9996
2 10101 100.0000 300.0000 0000000   0.0000  30.0000 14.89338871    15
CTC2_L_00176026-03
1 10102U 25638KD  26075.70042824  .00000000  00000+0  00000-0 0  9994
2 10102 100.0000 300.0000 0000000   0.0000 120.0000 14.89338871    16
CTC2_L_00176026-04
1 10103U 22872VK  26075.70042824  .00000000  00000+0  00000-0 0  9992
2 10103 100.0000 300.0000 0000000   0.0000 210.0000 14.89338871    17
CTC2_L_00176027-01
1 10104U 23973FR  26075.70042824  .00000000  00000+0  00000-0 0  9996
2 10104 100.0000 312.0000 0000000   0.0000 312.0000 14.89338871    14
CTC2_L_00176027-02
1 10105U 25328MH  26075.70042824  .00000000  00000+0  00000-0 0  9993
2 10105 100.0000 312.0000 0000000   0.0000  42.0000 14.89338871    15
CTC2_L_00176027-03
1 10106U 23105WE  26075.70042824  .00000000  00000+0  00000-0 0  9995
2 10106 100.0000 312.0000 0000000   0.0000 132.0000 14.89338871    16
CTC2_L_00176027-04
1 10107U 23867SC  26075.70042824  .00000000  00000+0  00000-0 0  9991
2 10107 100.0000 312.0000 0000000   0.0000 222.0000 14.89338871    17
CTC2_L_00176028-01
1 10108U 22986SB  26075.70042824  .00000000  00000+0  00000-0 0  9993
2 10108 100.0000 324.0000 0000000   0.0000 324.0000 14.89338871    14
CTC2_L_00176028-02
1 10109U 25315RH  26075.70042824  .00000000  00000+0  00000-0 0  9993
2 10109 100.0000 324.0000 0000000   0.0000  54.0000 14.89338871    15
CTC2_L_00176028-03
1 10110U 22270GJ  26075.70042824  .00000000  00000+0  00000-0 0  9992
2 10110 100.0000 324.0000 0000000   0.0000 144.0000 14.89338871    17
CTC2_L_00176028-04
1 10111U 26536HJ  26075.70042824  .00000000  00000+0  00000-0 0  9992
2 10111 100.0000 324.0000 0000000   0.0000 234.0000 14.89338871    18
CTC2_L_00176029-01
1 10112U 25912GT  26075.70042824  .00000000  00000+0  00000-0 0  9990
2 10112 100.0000 336.0000 0000000   0.0000 336.0000 14.89338871    15
CTC2_L_00176029-02
1 10113U 22887NR  26075.70042824  .00000000  00000+0  00000-0 0  9999
2 10113 100.0000 336.0000 0000000   0.0000  66.0000 14.89338871    16
CTC2_L_00176029-03
1 10114U 22535AW  26075.70042824  .00000000  00000+0  00000-0 0  9990
2 10114 100.0000 336.0000 0000000   0.0000 156.0000 14.89338871    17
CTC2_L_00176029-04
1 10115U 24012UN  26075.70042824  .00000000  00000+0  00000-0 0  9993
2 10115 100.0000 336.0000 0000000   0.0000 246.0000 14.89338871    18
CTC2_L_00176030-01
1 10116U 23051LX  26075.70042824  .00000000  00000+0  00000-0 0  9996
2 10116 100.0000 348.0000 0000000   0.0000 348.0000 14.89338871    15
CTC2_L_00176030-02
1 10117U 24353MU  26075.70042824  .00000000  00000+0  00000-0 0  9993
2 10117 100.0000 348.0000 0000000   0.0000  78.0000 14.89338871    16
CTC2_L_00176030-03
1 10118U 26146NR  26075.70042824  .00000000  00000+0  00000-0 0  9996
2 10118 100.0000 348.0000 0000000   0.0000 168.0000 14.89338871    17
CTC2_L_00176030-04
1 10119U 23513UW  26075.70042824  .00000000  00000+0  00000-0 0  9992
2 10119 100.0000 348.0000 0000000   0.0000 258.0000 14.89338871    18
